[{"OBJECT_NAME":"ONEWEB-0240","OBJECT_ID":"2021-045U","EPOCH":"2026-03-09T14:58:28.098912","MEAN_MOTION":13.1554678,"ECCENTRICITY":0.0001907,"INCLINATION":87.8957,"RA_OF_ASC_NODE":279.0506,"ARG_OF_PERICENTER":95.4095,"MEAN_ANOMALY":264.7253,"EPHEMERIS_TYPE":0,"CLASSIFICATION_TYPE":"U","NORAD_CAT_ID":48785,"ELEMENT_SET_NO":999,"REV_AT_EPOCH":23131,"BSTAR":-0.00017506,"MEAN_MOTION_DOT":-5.3e-7,"MEAN_MOTION_DDOT":0},{"OBJECT_NAME":"COSMOS 375 DEB","OBJECT_ID":"1970-091S","EPOCH":"2026-03-09T22:51:46.743840","MEAN_MOTION":13.67879692,"ECCENTRICITY":0.06958217,"INCLINATION":62.529,"RA_OF_ASC_NODE":0.4446,"ARG_OF_PERICENTER":155.8551,"MEAN_ANOMALY":207.6827,"EPHEMERIS_TYPE":0,"CLASSIFICATION_TYPE":"U","NORAD_CAT_ID":4665,"ELEMENT_SET_NO":999,"REV_AT_EPOCH":64170,"BSTAR":0.00074210766,"MEAN_MOTION_DOT":3.514e-5,"MEAN_MOTION_DDOT":0}]
